0 FENGYUN 1C DEB
1 36272U 99025DWZ 13281.04597192  .00000379  00000-0  20259-3 0  1786
2 36272 099.0699 358.9155 0179424 194.6728 164.9233 14.11217664260665
0 FENGYUN 1C DEB
1 36272U 99025DWZ 13287.42708088  .00000418  00000-0  22045-3 0  1804
2 36272 099.0670 005.3618 0179721 176.6629 183.5865 14.11224499261563
0 FENGYUN 1C DEB
1 36272U 99025DWZ 13290.40491836  .00000449  00000-0  23558-3 0  1811
2 36272 099.0658 008.3656 0179216 168.3601 192.1864 14.11228357261989
0 FENGYUN 1C DEB
1 36272U 99025DWZ 13292.46104030  .00000469  00000-0  24472-3 0  1825
2 36272 099.0671 010.4464 0179684 162.4369 198.3247 14.11230948262275
0 FENGYUN 1C DEB
1 36272U 99025DWZ 13293.45364395  .00000489  00000-0  25352-3 0  1838
2 36272 099.0701 011.4572 0180927 159.3979 201.4636 14.11232569262419
